ONEWEB-0058             
1 45161U 20008AG  25284.20888998  .00000585  00000+0  16385-2 0  9992
2 45161  87.8752  85.9245 0001669 102.6269 257.5046 13.10371191275816
ONEWEB-0059             
1 45162U 20008AH  25284.20541579  .00000667  00000+0  18732-2 0  9993
2 45162  87.8753  85.9255 0001576  95.4223 264.7085 13.10375345275712
ONEWEB-0062             
1 45163U 20008AJ  25283.92570865 -.00000095  00000+0 -30738-3 0  9990
2 45163  87.8745  85.9589 0001870 100.4174 259.7164 13.10369859275549
ONEWEB-0065             
1 45164U 20008AK  25284.21121573  .00000676  00000+0  18994-2 0  9994
2 45164  87.8748  85.9275 0001772  79.5565 280.5762 13.10378153275279
ONEWEB-0066             
1 45424U 20020A   25284.11403262 -.00000093  00000+0 -29735-3 0  9995
2 45424  87.8817  70.6663 0001341  93.3110 266.8171 13.11414929270032
ONEWEB-0067             
1 45425U 20020B   25284.30407759  .00000044  00000+0  87533-4 0  9997
2 45425  87.8816  70.5315 0001459  90.3425 269.7870 13.11418024270118
ONEWEB-0080             
1 45426U 20020C   25284.31325722  .00000372  00000+0  10143-2 0  9993
2 45426  87.8816  70.6279 0001596 107.1296 253.0007 13.11419033270089
ONEWEB-0090             
1 45427U 20020D   25284.10387163  .00000353  00000+0  95992-3 0  9993
2 45427  87.8819  70.6704 0001653  96.2082 263.9235 13.11414650270028
ONEWEB-0061             
1 45428U 20020E   25284.13593256  .00000844  00000+0  23438-2 0  9999
2 45428  87.8808  70.6414 0001480  97.1342 262.9955 13.11428082269987
ONEWEB-0081             
1 45429U 20020F   25284.11742252 -.00000218  00000+0 -65080-3 0  9997
2 45429  87.8811  70.6657 0001422  91.9231 268.2060 13.11415423270091
ONEWEB-0069             
1 45430U 20020G   25284.10641512  .00000230  00000+0  61450-3 0  9994
2 45430  87.8817  70.6644 0001572  92.3210 267.8098 13.11413778270023
ONEWEB-0031             
1 45431U 20020H   25283.84954576  .00000257  00000+0  69061-3 0  9997
2 45431  87.8810  70.7426 0001829 100.3839 259.7496 13.11416839269973
ONEWEB-0027             
1 45432U 20020J   25284.31117086  .00000046  00000+0  85399-4 0  9997
2 45432  87.9098  55.3295 0002086  99.3822 260.7546 13.17648067273587
ONEWEB-0064             
1 45433U 20020K   25284.15304092  .00000105  00000+0  26125-3 0  9992
2 45433  87.8809  70.6726 0001789  97.6285 262.5047 13.11418175270042
ONEWEB-0018             
1 45434U 20020L   25284.10895347  .00000079  00000+0  18595-3 0  9998
2 45434  87.8816  70.6673 0001570  96.1764 263.9543 13.11414827269983
ONEWEB-0083             
1 45435U 20020M   25284.32852437  .00000467  00000+0  12823-2 0  9994
2 45435  87.8816  70.6128 0001654  97.0761 263.0555 13.11414789270050
ONEWEB-0095             
1 45436U 20020N   25284.16674884  .00000564  00000+0  15563-2 0  9997
2 45436  87.8805  70.6615 0002261  81.3378 278.8007 13.11417628270034
