[{"OBJECT_NAME":"ONEWEB-0058","OBJECT_ID":"2020-008AG","EPOCH":"2025-10-11T05:00:48.094272","MEAN_MOTION":13.10371191,"ECCENTRICITY":0.0001669,"INCLINATION":87.8752,"RA_OF_ASC_NODE":85.9245,"ARG_OF_PERICENTER":102.6269,"MEAN_ANOMALY":257.5046,"EPHEMERIS_TYPE":0,"CLASSIFICATION_TYPE":"U","NORAD_CAT_ID":45161,"ELEMENT_SET_NO":999,"REV_AT_EPOCH":27581,"BSTAR":0.0016384922,"MEAN_MOTION_DOT":5.85e-6,"MEAN_MOTION_DDOT":0},{"OBJECT_NAME":"ONEWEB-0059","OBJECT_ID":"2020-008AH","EPOCH":"2025-10-11T04:55:47.924256","MEAN_MOTION":13.10375345,"ECCENTRICITY":0.00015767,"INCLINATION":87.8753,"RA_OF_ASC_NODE":85.9255,"ARG_OF_PERICENTER":95.4223,"MEAN_ANOMALY":264.7085,"EPHEMERIS_TYPE":0,"CLASSIFICATION_TYPE":"U","NORAD_CAT_ID":45162,"ELEMENT_SET_NO":999,"REV_AT_EPOCH":27571,"BSTAR":0.0018731849,"MEAN_MOTION_DOT":6.67e-6,"MEAN_MOTION_DDOT":0},{"OBJECT_NAME":"ONEWEB-0062","OBJECT_ID":"2020-008AJ","EPOCH":"2025-10-10T22:13:01.227360","MEAN_MOTION":13.10369859,"ECCENTRICITY":0.000187,"INCLINATION":87.8745,"RA_OF_ASC_NODE":85.9589,"ARG_OF_PERICENTER":100.4174,"MEAN_ANOMALY":259.7164,"EPHEMERIS_TYPE":0,"CLASSIFICATION_TYPE":"U","NORAD_CAT_ID":45163,"ELEMENT_SET_NO":999,"REV_AT_EPOCH":27554,"BSTAR":-0.00030738,"MEAN_MOTION_DOT":-9.5e-7,"MEAN_MOTION_DDOT":0},{"OBJECT_NAME":"ONEWEB-0065","OBJECT_ID":"2020-008AK","EPOCH":"2025-10-11T05:04:09.039072","MEAN_MOTION":13.10378153,"ECCENTRICITY":0.00017724,"INCLINATION":87.8748,"RA_OF_ASC_NODE":85.9275,"ARG_OF_PERICENTER":79.5565,"MEAN_ANOMALY":280.5762,"EPHEMERIS_TYPE":0,"CLASSIFICATION_TYPE":"U","NORAD_CAT_ID":45164,"ELEMENT_SET_NO":999,"REV_AT_EPOCH":27527,"BSTAR":0.0018994393,"MEAN_MOTION_DOT":6.76e-6,"MEAN_MOTION_DDOT":0},{"OBJECT_NAME":"ONEWEB-0066","OBJECT_ID":"2020-020A","EPOCH":"2025-10-11T02:44:12.418368","MEAN_MOTION":13.11414929,"ECCENTRICITY":0.00013415,"INCLINATION":87.8817,"RA_OF_ASC_NODE":70.6663,"ARG_OF_PERICENTER":93.311,"MEAN_ANOMALY":266.8171,"EPHEMERIS_TYPE":0,"CLASSIFICATION_TYPE":"U","NORAD_CAT_ID":45424,"ELEMENT_SET_NO":999,"REV_AT_EPOCH":27003,"BSTAR":-0.00029734963,"MEAN_MOTION_DOT":-9.3e-7,"MEAN_MOTION_DDOT":0},{"OBJECT_NAME":"ONEWEB-0067","OBJECT_ID":"2020-020B","EPOCH":"2025-10-11T07:17:52.303776","MEAN_MOTION":13.11418024,"ECCENTRICITY":0.00014597,"INCLINATION":87.8816,"RA_OF_ASC_NODE":70.5315,"ARG_OF_PERICENTER":90.3425,"MEAN_ANOMALY":269.787,"EPHEMERIS_TYPE":0,"CLASSIFICATION_TYPE":"U","NORAD_CAT_ID":45425,"ELEMENT_SET_NO":999,"REV_AT_EPOCH":27011,"BSTAR":8.7532765e-5,"MEAN_MOTION_DOT":4.4e-7,"MEAN_MOTION_DDOT":0},{"OBJECT_NAME":"ONEWEB-0080","OBJECT_ID":"2020-020C","EPOCH":"2025-10-11T07:31:05.423808","MEAN_MOTION":13.11419033,"ECCENTRICITY":0.0001596,"INCLINATION":87.8816,"RA_OF_ASC_NODE":70.6279,"ARG_OF_PERICENTER":107.1296,"MEAN_ANOMALY":253.0007,"EPHEMERIS_TYPE":0,"CLASSIFICATION_TYPE":"U","NORAD_CAT_ID":45426,"ELEMENT_SET_NO":999,"REV_AT_EPOCH":27008,"BSTAR":0.001014319,"MEAN_MOTION_DOT":3.72e-6,"MEAN_MOTION_DDOT":0},{"OBJECT_NAME":"ONEWEB-0090","OBJECT_ID":"2020-020D","EPOCH":"2025-10-11T02:29:34.508832","MEAN_MOTION":13.1141465,"ECCENTRICITY":0.00016538,"INCLINATION":87.8819,"RA_OF_ASC_NODE":70.6704,"ARG_OF_PERICENTER":96.2082,"MEAN_ANOMALY":263.9235,"EPHEMERIS_TYPE":0,"CLASSIFICATION_TYPE":"U","NORAD_CAT_ID":45427,"ELEMENT_SET_NO":999,"REV_AT_EPOCH":27002,"BSTAR":0.00095991823,"MEAN_MOTION_DOT":3.53e-6,"MEAN_MOTION_DDOT":0},{"OBJECT_NAME":"ONEWEB-0061","OBJECT_ID":"2020-020E","EPOCH":"2025-10-11T03:15:44.573184","MEAN_MOTION":13.11428082,"ECCENTRICITY":0.00014804,"INCLINATION":87.8808,"RA_OF_ASC_NODE":70.6414,"ARG_OF_PERICENTER":97.1342,"MEAN_ANOMALY":262.9955,"EPHEMERIS_TYPE":0,"CLASSIFICATION_TYPE":"U","NORAD_CAT_ID":45428,"ELEMENT_SET_NO":999,"REV_AT_EPOCH":26998,"BSTAR":0.0023437538,"MEAN_MOTION_DOT":8.44e-6,"MEAN_MOTION_DDOT":0},{"OBJECT_NAME":"ONEWEB-0081","OBJECT_ID":"2020-020F","EPOCH":"2025-10-11T02:49:05.305728","MEAN_MOTION":13.11415423,"ECCENTRICITY":0.00014227,"INCLINATION":87.8811,"RA_OF_ASC_NODE":70.6657,"ARG_OF_PERICENTER":91.9231,"MEAN_ANOMALY":268.206,"EPHEMERIS_TYPE":0,"CLASSIFICATION_TYPE":"U","NORAD_CAT_ID":45429,"ELEMENT_SET_NO":999,"REV_AT_EPOCH":27009,"BSTAR":-0.00065079809,"MEAN_MOTION_DOT":-2.18e-6,"MEAN_MOTION_DDOT":0},{"OBJECT_NAME":"ONEWEB-0069","OBJECT_ID":"2020-020G","EPOCH":"2025-10-11T02:33:14.266368","MEAN_MOTION":13.11413778,"ECCENTRICITY":0.00015727,"INCLINATION":87.8817,"RA_OF_ASC_NODE":70.6644,"ARG_OF_PERICENTER":92.321,"MEAN_ANOMALY":267.8098,"EPHEMERIS_TYPE":0,"CLASSIFICATION_TYPE":"U","NORAD_CAT_ID":45430,"ELEMENT_SET_NO":999,"REV_AT_EPOCH":27002,"BSTAR":0.00061449838,"MEAN_MOTION_DOT":2.3e-6,"MEAN_MOTION_DDOT":0},{"OBJECT_NAME":"ONEWEB-0031","OBJECT_ID":"2020-020H","EPOCH":"2025-10-10T20:23:20.753664","MEAN_MOTION":13.11416839,"ECCENTRICITY":0.0001829,"INCLINATION":87.881,"RA_OF_ASC_NODE":70.7426,"ARG_OF_PERICENTER":100.3839,"MEAN_ANOMALY":259.7496,"EPHEMERIS_TYPE":0,"CLASSIFICATION_TYPE":"U","NORAD_CAT_ID":45431,"ELEMENT_SET_NO":999,"REV_AT_EPOCH":26997,"BSTAR":0.00069061136,"MEAN_MOTION_DOT":2.57e-6,"MEAN_MOTION_DDOT":0},{"OBJECT_NAME":"ONEWEB-0027","OBJECT_ID":"2020-020J","EPOCH":"2025-10-11T07:28:05.162304","MEAN_MOTION":13.17648067,"ECCENTRICITY":0.00020865,"INCLINATION":87.9098,"RA_OF_ASC_NODE":55.3295,"ARG_OF_PERICENTER":99.3822,"MEAN_ANOMALY":260.7546,"EPHEMERIS_TYPE":0,"CLASSIFICATION_TYPE":"U","NORAD_CAT_ID":45432,"ELEMENT_SET_NO":999,"REV_AT_EPOCH":27358,"BSTAR":8.5399289e-5,"MEAN_MOTION_DOT":4.6e-7,"MEAN_MOTION_DDOT":0},{"OBJECT_NAME":"ONEWEB-0064","OBJECT_ID":"2020-020K","EPOCH":"2025-10-11T03:40:22.735488","MEAN_MOTION":13.11418175,"ECCENTRICITY":0.00017898,"INCLINATION":87.8809,"RA_OF_ASC_NODE":70.6726,"ARG_OF_PERICENTER":97.6285,"MEAN_ANOMALY":262.5047,"EPHEMERIS_TYPE":0,"CLASSIFICATION_TYPE":"U","NORAD_CAT_ID":45433,"ELEMENT_SET_NO":999,"REV_AT_EPOCH":27004,"BSTAR":0.00026125176,"MEAN_MOTION_DOT":1.05e-6,"MEAN_MOTION_DDOT":0},{"OBJECT_NAME":"ONEWEB-0018","OBJECT_ID":"2020-020L","EPOCH":"2025-10-11T02:36:53.579808","MEAN_MOTION":13.11414827,"ECCENTRICITY":0.00015703,"INCLINATION":87.8816,"RA_OF_ASC_NODE":70.6673,"ARG_OF_PERICENTER":96.1764,"MEAN_ANOMALY":263.9543,"EPHEMERIS_TYPE":0,"CLASSIFICATION_TYPE":"U","NORAD_CAT_ID":45434,"ELEMENT_SET_NO":999,"REV_AT_EPOCH":26998,"BSTAR":0.00018594778,"MEAN_MOTION_DOT":7.9e-7,"MEAN_MOTION_DDOT":0},{"OBJECT_NAME":"ONEWEB-0083","OBJECT_ID":"2020-020M","EPOCH":"2025-10-11T07:53:04.505568","MEAN_MOTION":13.11414789,"ECCENTRICITY":0.00016544,"INCLINATION":87.8816,"RA_OF_ASC_NODE":70.6128,"ARG_OF_PERICENTER":97.0761,"MEAN_ANOMALY":263.0555,"EPHEMERIS_TYPE":0,"CLASSIFICATION_TYPE":"U","NORAD_CAT_ID":45435,"ELEMENT_SET_NO":999,"REV_AT_EPOCH":27005,"BSTAR":0.0012822565,"MEAN_MOTION_DOT":4.67e-6,"MEAN_MOTION_DDOT":0},{"OBJECT_NAME":"ONEWEB-0095","OBJECT_ID":"2020-020N","EPOCH":"2025-10-11T04:00:07.099776","MEAN_MOTION":13.11417628,"ECCENTRICITY":0.00022616,"INCLINATION":87.8805,"RA_OF_ASC_NODE":70.6615,"ARG_OF_PERICENTER":81.3378,"MEAN_ANOMALY":278.8007,"EPHEMERIS_TYPE":0,"CLASSIFICATION_TYPE":"U","NORAD_CAT_ID":45436,"ELEMENT_SET_NO":999,"REV_AT_EPOCH":27003,"BSTAR":0.0015562602,"MEAN_MOTION_DOT":5.64e-6,"MEAN_MOTION_DDOT":0}]
